NORAD_CAT_ID,OBJECT_NAME,OBJECT_TYPE,EPOCH,MEAN_MOTION,ECCENTRICITY,INCLINATION,RA_OF_ASC_NODE,ARG_OF_PERICENTER,MEAN_ANOMALY,BSTAR,MEAN_MOTION_DOT,MEAN_MOTION_DDOT,TLE_LINE0,TLE_LINE1,TLE_LINE2,SEMIMAJOR_AXIS,PERIOD,APOGEE,PERIGEE,DECAYED
55403.0,STARLINK-5597,PAYLOAD,2023-10-05 21:42:32,14.98326552,0.0002688,69.9999,137.8284,268.8114,91.2737,5.5036e-05,5.64e-06,0.0,0 STARLINK-5597,1 55403U 23014N   23278.90454323  .00000564  00000-0  55036-4 0  9997,2 55403  69.9999 137.8284 0002688 268.8114  91.2737 14.98326552 39373,6950.204,96.107,573.937,570.2,0.0
55403.0,STARLINK-5597,PAYLOAD,2023-10-06 13:43:53,14.98330142,0.0002757,69.9995,136.1463,267.9669,92.1174,-9.9184e-05,-1.276e-05,0.0,0 STARLINK-5597,1 55403U 23014N   23279.57214558 -.00001276  00000-0 -99184-4 0  9990,2 55403  69.9995 136.1463 0002757 267.9669  92.1174 14.98330142 39478,6950.192,96.107,573.974,570.141,0.0
55403.0,STARLINK-5597,PAYLOAD,2023-10-06 18:32:17,14.98329923,0.0002792,69.9994,135.6408,270.1295,89.9544,-9.6056e-05,-1.239e-05,0.0,0 STARLINK-5597,1 55403U 23014N   23279.77242567 -.00001239  00000-0 -96056-4 0  9997,2 55403  69.9994 135.6408 0002792 270.1295  89.9544 14.98329923 38569,6950.193,96.107,573.999,570.118,0.0
55403.0,STARLINK-5597,PAYLOAD,2023-10-06 21:44:33,14.98329824,0.0002942,69.9996,135.3042,274.1683,85.914,-6.6456e-05,-8.86e-06,0.0,0 STARLINK-5597,1 55403U 23014N   23279.90594496 -.00000886  00000-0 -66456-4 0  9991,2 55403  69.9996 135.3042 0002942 274.1683  85.9140 14.98329824 39529,6950.193,96.107,574.103,570.014,0.0
55403.0,STARLINK-5597,PAYLOAD,2023-10-07 00:56:49,14.98331956,0.0002783,69.9993,134.9675,270.4934,89.5906,-6.3755e-05,-8.54e-06,0.0,0 STARLINK-5597,1 55403U 23014N   23280.03946336 -.00000854  00000-0 -63755-4 0  9995,2 55403  69.9993 134.9675 0002783 270.4934  89.5906 14.98331956 39545,6950.187,96.107,573.986,570.118,0.0
55403.0,STARLINK-5597,PAYLOAD,2023-10-07 18:34:18,14.9833115,0.0002728,69.9993,133.1163,267.4022,92.6825,3.7566e-05,3.55e-06,0.0,0 STARLINK-5597,1 55403U 23014N   23280.77382061  .00000355  00000-0  37566-4 0  9990,2 55403  69.9993 133.1163 0002728 267.4022  92.6825 14.98331150 38710,6950.189,96.107,573.95,570.158,0.0
55403.0,STARLINK-5597,PAYLOAD,2023-10-07 21:46:34,14.9833247,0.0002736,69.9992,132.7793,268.7616,91.323,5.0218e-05,5.06e-06,0.0,0 STARLINK-5597,1 55403U 23014N   23280.90733935  .00000506  00000-0  50218-4 0  9992,2 55403  69.9992 132.7793 0002736 268.7616  91.3230 14.98332470 39673,6950.185,96.107,573.952,570.149,0.0
55403.0,STARLINK-5597,PAYLOAD,2023-10-08 07:23:22,14.98338793,0.000268,69.9993,131.7691,271.7776,88.3076,-0.00018832,-2.34e-05,0.0,0 STARLINK-5597,1 55403U 23014N   23281.30790046 -.00002340  00000-0 -18832-3 0  9998,2 55403  69.9993 131.7691 0002680 271.7776  88.3076 14.98338793 39734,6950.166,96.106,573.893,570.168,0.0
55403.0,STARLINK-5597,PAYLOAD,2023-10-08 18:36:19,14.98329749,0.0002894,69.9986,130.59,270.122,89.9607,1.0838e-05,3.6e-07,0.0,0 STARLINK-5597,1 55403U 23014N   23281.77522173  .00000036  00000-0  10838-4 0  9990,2 55403  69.9986 130.5900 0002894 270.1220  89.9607 14.98329749 38861,6950.194,96.107,574.07,570.047,0.0
55403.0,STARLINK-5597,PAYLOAD,2023-10-08 20:12:27,14.98331586,0.0002831,69.9988,130.422,269.2052,90.8783,3.6251e-05,3.4e-06,0.0,0 STARLINK-5597,1 55403U 23014N   23281.84197975  .00000340  00000-0  36251-4 0  9991,2 55403  69.9988 130.4220 0002831 269.2052  90.8783 14.98331586 39814,6950.188,96.107,574.021,570.085,0.0
55403.0,STARLINK-5597,PAYLOAD,2023-10-09 07:25:23,14.98350533,0.0003092,69.9991,129.2441,259.3132,100.7679,-0.00043898,-5.33e-05,0.0,0 STARLINK-5597,1 55403U 23014N   23282.30929820 -.00005330  00000-0 -43898-3 0  9995,2 55403  69.9991 129.2441 0003092 259.3132 100.7679 14.98350533 38949,6950.129,96.106,574.143,569.845,0.0
55403.0,STARLINK-5597,PAYLOAD,2023-10-09 18:38:20,14.98326561,0.0002894,69.999,128.0662,269.2802,90.8025,-5.4857e-05,-7.47e-06,0.0,0 STARLINK-5597,1 55403U 23014N   23282.77662580 -.00000747  00000-0 -54857-4 0  9998,2 55403  69.9990 128.0662 0002894 269.2802  90.8025 14.98326561 39010,6950.204,96.107,574.08,570.057,0.0
55403.0,STARLINK-5597,PAYLOAD,2023-10-09 21:50:36,14.98326493,0.0002954,69.9989,127.7295,271.0747,89.0074,-5.0061e-05,-6.9e-06,0.0,0 STARLINK-5597,1 55403U 23014N   23282.91014598 -.00000690  00000-0 -50061-4 0  9994,2 55403  69.9989 127.7295 0002954 271.0747  89.0074 14.98326493 39975,6950.204,96.107,574.122,570.016,0.0
55403.0,STARLINK-5597,PAYLOAD,2023-10-10 13:51:56,14.98329109,0.000291,69.9987,126.0461,268.8723,91.2103,9.5505e-05,1.047e-05,0.0,0 STARLINK-5597,1 55403U 23014N   23283.57774029  .00001047  00000-0  95505-4 0  9996,2 55403  69.9987 126.0461 0002910 268.8723  91.2103 14.98329109 40078,6950.196,96.107,574.083,570.038,0.0
55403.0,STARLINK-5597,PAYLOAD,2023-10-10 18:40:20,14.983295,0.0002872,69.9988,125.5408,268.9303,91.1527,0.00011015,1.221e-05,0.0,0 STARLINK-5597,1 55403U 23014N   23283.77801985  .00001221  00000-0  11015-3 0  9997,2 55403  69.9988 125.5408 0002872 268.9303  91.1527 14.98329500 39168,6950.194,96.107,574.056,570.063,0.0
55403.0,STARLINK-5597,PAYLOAD,2023-10-10 21:52:37,14.98332685,0.0002892,69.9989,125.204,268.02,92.0628,2.2107e-05,1.71e-06,0.0,0 STARLINK-5597,1 55403U 23014N   23283.91153951  .00000171  00000-0  22107-4 0  9994,2 55403  69.9989 125.2040 0002892 268.0200  92.0628 14.98332685 40125,6950.185,96.107,574.06,570.04,0.0
55403.0,STARLINK-5597,PAYLOAD,2023-10-11 13:53:57,14.98327805,0.0002935,69.9988,123.5208,267.9296,92.1527,5.02e-05,5.06e-06,0.0,0 STARLINK-5597,1 55403U 23014N   23284.57914120  .00000506  00000-0  50200-4 0  9997,2 55403  69.9988 123.5208 0002935 267.9296  92.1527 14.98327805 40220,6950.2,96.107,574.105,570.025,0.0
55403.0,STARLINK-5597,PAYLOAD,2023-10-11 18:42:21,14.98328883,0.0002934,69.9989,123.0158,268.0271,92.0552,4.2048e-05,4.09e-06,0.0,0 STARLINK-5597,1 55403U 23014N   23284.77942082  .00000409  00000-0  42048-4 0  9990,2 55403  69.9989 123.0158 0002934 268.0271  92.0552 14.98328883 39316,6950.196,96.107,574.101,570.022,0.0
55403.0,STARLINK-5597,PAYLOAD,2023-10-12 13:55:56,14.9835295,0.0002877,69.9983,120.9951,274.1422,85.9408,0.00013946,1.572e-05,0.0,0 STARLINK-5597,1 55403U 23014N   23285.58051853  .00001572  00000-0  13946-3 0  9993,2 55403  69.9983 120.9951 0002877 274.1422  85.9408 14.98352950 40370,6950.122,96.106,573.986,569.987,0.0
55403.0,STARLINK-5597,PAYLOAD,2023-10-12 20:20:30,14.98335401,0.0003039,69.9993,120.3232,264.3121,95.7692,-6.3992e-06,-1.69e-06,0.0,0 STARLINK-5597,1 55403U 23014N   23285.84756982 -.00000169  00000-0 -63992-5 0  9998,2 55403  69.9993 120.3232 0003039 264.3121  95.7692 14.98335401 39470,6950.176,96.107,574.153,569.929,0.0
55403.0,STARLINK-5597,PAYLOAD,2023-10-12 21:56:38,14.98333923,0.0003016,69.9993,120.1549,262.8949,97.1867,-2.3735e-05,-3.76e-06,0.0,0 STARLINK-5597,1 55403U 23014N   23285.91433080 -.00000376  00000-0 -23735-4 0  9997,2 55403  69.9993 120.1549 0003016 262.8949  97.1867 14.98333923 40429,6950.181,96.107,574.142,569.95,0.0
55403.0,STARLINK-5597,PAYLOAD,2023-10-13 05:57:18,14.98328601,0.0002969,69.9994,119.313,267.0674,93.0145,-8.2604e-05,-1.078e-05,0.0,0 STARLINK-5597,1 55403U 23014N   23286.24813523 -.00001078  00000-0 -82604-4 0  9998,2 55403  69.9994 119.3130 0002969 267.0674  93.0145 14.98328601 39535,6950.197,96.107,574.126,569.999,0.0
55403.0,STARLINK-5597,PAYLOAD,2023-10-13 13:57:59,14.98326182,0.000289,69.9995,118.4712,268.3275,91.7553,-7.061e-05,-9.35e-06,0.0,0 STARLINK-5597,1 55403U 23014N   23286.58193661 -.00000935  00000-0 -70610-4 0  9994,2 55403  69.9995 118.4712 0002890 268.3275  91.7553 14.98326182 40527,6950.205,96.107,574.078,570.061,0.0
55403.0,STARLINK-5597,PAYLOAD,2023-10-13 21:58:39,14.98324438,0.0002949,69.9993,117.6295,267.5741,92.5081,-8.8504e-05,-1.149e-05,0.0,0 STARLINK-5597,1 55403U 23014N   23286.91573855 -.00001149  00000-0 -88504-4 0  9997,2 55403  69.9993 117.6295 0002949 267.5741  92.5081 14.98324438 40578,6950.21,96.107,574.125,570.025,0.0
55403.0,STARLINK-5597,PAYLOAD,2023-10-14 05:59:19,14.98326894,0.000299,69.9992,116.788,267.9055,92.1762,-6.8794e-05,-9.14e-06,0.0,0 STARLINK-5597,1 55403U 23014N   23287.24953686 -.00000914  00000-0 -68794-4 0  9996,2 55403  69.9992 116.7880 0002990 267.9055  92.1762 14.98326894 39685,6950.202,96.107,574.146,569.989,0.0
55403.0,STARLINK-5597,PAYLOAD,2023-10-14 13:59:59,14.98347894,0.0002865,69.9991,115.9462,265.3019,94.7813,-0.00035941,-4.381e-05,0.0,0 STARLINK-5597,1 55403U 23014N   23287.58333120 -.00004381  00000-0 -35941-3 0  9997,2 55403  69.9991 115.9462 0002865 265.3019  94.7813 14.98347894 40673,6950.138,96.106,573.994,570.011,0.0
55403.0,STARLINK-5597,PAYLOAD,2023-10-14 20:24:32,14.98336754,0.0002831,69.999,115.2728,266.5099,93.5737,-0.00019311,-2.397e-05,0.0,0 STARLINK-5597,1 55403U 23014N   23287.85037193 -.00002397  00000-0 -19311-3 0  9996,2 55403  69.9990 115.2728 0002831 266.5099  93.5737 14.98336754 39778,6950.172,96.107,574.005,570.069,0.0
55403.0,STARLINK-5597,PAYLOAD,2023-10-14 22:00:39,14.98345286,0.0002886,69.999,115.1045,265.7037,94.3793,-0.00033581,-4.099e-05,0.0,0 STARLINK-5597,1 55403U 23014N   23287.91712942 -.00004099  00000-0 -33581-3 0  9991,2 55403  69.9990 115.1045 0002886 265.7037  94.3793 14.98345286 40720,6950.146,96.106,574.016,570.005,0.0
55403.0,STARLINK-5597,PAYLOAD,2023-10-15 12:25:53,14.98321085,0.0003111,69.9986,113.5893,267.7359,92.3444,5.7644e-05,5.95e-06,0.0,0 STARLINK-5597,1 55403U 23014N   23288.51797618  .00000595  00000-0  57644-4 0  9993,2 55403  69.9986 113.5893 0003111 267.7359  92.3444 14.98321085 39875,6950.22,96.108,574.248,569.923,0.0
55403.0,STARLINK-5597,PAYLOAD,2023-10-15 14:02:01,14.98321968,0.0003103,69.9987,113.421,267.6921,92.3883,6.4483e-05,6.76e-06,0.0,0 STARLINK-5597,1 55403U 23014N   23288.58473577  .00000676  00000-0  64483-4 0  9994,2 55403  69.9987 113.4210 0003103 267.6921  92.3883 14.98321968 40827,6950.218,96.108,574.239,569.926,0.0
